CTC2_L_00483001-01
1 12448U 23303ED  26037.47796296  .00000000  00000+0  00000-0 0  9997
2 12448  66.0000   0.0000 0000000   0.0000   0.0000 13.81943798    17
CTC2_L_00483001-02
1 12449U 26304US  26037.47796296  .00000000  00000+0  00000-0 0  9992
2 12449  66.0000   0.0000 0000000   0.0000 180.0000 13.81943798    17
CTC2_L_00483002-01
1 12450U 24561VJ  26037.47796296  .00000000  00000+0  00000-0 0  9997
2 12450  66.0000  12.0000 0000000   0.0000  24.0000 13.81943798    19
CTC2_L_00483002-02
1 12451U 22355AQ  26037.47796296  .00000000  00000+0  00000-0 0  9997
2 12451  66.0000  12.0000 0000000   0.0000 204.0000 13.81943798    10
CTC2_L_00483003-01
1 12452U 22144AI  26037.47796296  .00000000  00000+0  00000-0 0  9994
2 12452  66.0000  24.0000 0000000   0.0000  48.0000 13.81943798    10
CTC2_L_00483003-02
1 12453U 23212SA  26037.47796296  .00000000  00000+0  00000-0 0  9992
2 12453  66.0000  24.0000 0000000   0.0000 228.0000 13.81943798    11
CTC2_L_00483004-01
1 12454U 23478GS  26037.47796296  .00000000  00000+0  00000-0 0  9997
2 12454  66.0000  36.0000 0000000   0.0000  72.0000 13.81943798    12
CTC2_L_00483004-02
1 12455U 25854XA  26037.47796296  .00000000  00000+0  00000-0 0  9998
2 12455  66.0000  36.0000 0000000   0.0000 252.0000 13.81943798    13
CTC2_L_00483005-01
1 12456U 24753XH  26037.47796296  .00000000  00000+0  00000-0 0  9996
2 12456  66.0000  48.0000 0000000   0.0000  96.0000 13.81943798    13
CTC2_L_00483005-02
1 12457U 26417PR  26037.47796296  .00000000  00000+0  00000-0 0  9996
2 12457  66.0000  48.0000 0000000   0.0000 276.0000 13.81943798    14
CTC2_L_00483006-01
1 12458U 22266KX  26037.47796296  .00000000  00000+0  00000-0 0  9995
2 12458  66.0000  60.0000 0000000   0.0000 120.0000 13.81943798    17
CTC2_L_00483006-02
1 12459U 24179UV  26037.47796296  .00000000  00000+0  00000-0 0  9991
2 12459  66.0000  60.0000 0000000   0.0000 300.0000 13.81943798    18
CTC2_L_00483007-01
1 12460U 23007GK  26037.47796296  .00000000  00000+0  00000-0 0  9992
2 12460  66.0000  72.0000 0000000   0.0000 144.0000 13.81943798    19
CTC2_L_00483007-02
1 12461U 25316UJ  26037.47796296  .00000000  00000+0  00000-0 0  9998
2 12461  66.0000  72.0000 0000000   0.0000 324.0000 13.81943798    10
CTC2_L_00483008-01
1 12462U 24869FH  26037.47796296  .00000000  00000+0  00000-0 0  9991
2 12462  66.0000  84.0000 0000000   0.0000 168.0000 13.81943798    10
CTC2_L_00483008-02
1 12463U 25155VW  26037.47796296  .00000000  00000+0  00000-0 0  9991
2 12463  66.0000  84.0000 0000000   0.0000 348.0000 13.81943798    11
CTC2_L_00483009-01
1 12464U 22229MZ  26037.47796296  .00000000  00000+0  00000-0 0  9991
2 12464  66.0000  96.0000 0000000   0.0000 192.0000 13.81943798    12
CTC2_L_00483009-02
1 12465U 26128AD  26037.47796296  .00000000  00000+0  00000-0 0  9994
2 12465  66.0000  96.0000 0000000   0.0000  12.0000 13.81943798    14
CTC2_L_00483010-01
1 12466U 24096KO  26037.47796296  .00000000  00000+0  00000-0 0  9997
2 12466  66.0000 108.0000 0000000   0.0000 216.0000 13.81943798    15
CTC2_L_00483010-02
1 12467U 25003BM  26037.47796296  .00000000  00000+0  00000-0 0  9997
2 12467  66.0000 108.0000 0000000   0.0000  36.0000 13.81943798    16
CTC2_L_00483011-01
1 12468U 23633CM  26037.47796296  .00000000  00000+0  00000-0 0  9995
2 12468  66.0000 120.0000 0000000   0.0000 240.0000 13.81943798    18
CTC2_L_00483011-02
1 12469U 24739R   26037.47796296  .00000000  00000+0  00000-0 0  9994
2 12469  66.0000 120.0000 0000000   0.0000  60.0000 13.81943798    19
CTC2_L_00483012-01
1 12470U 23323CY  26037.47796296  .00000000  00000+0  00000-0 0  9994
2 12470  66.0000 132.0000 0000000   0.0000 264.0000 13.81943798    10
CTC2_L_00483012-02
1 12471U 22134HD  26037.47796296  .00000000  00000+0  00000-0 0  9994
2 12471  66.0000 132.0000 0000000   0.0000  84.0000 13.81943798    11
CTC2_L_00483013-01
1 12472U 23473PM  26037.47796296  .00000000  00000+0  00000-0 0  9992
2 12472  66.0000 144.0000 0000000   0.0000 288.0000 13.81943798    11
CTC2_L_00483013-02
1 12473U 24685BQ  26037.47796296  .00000000  00000+0  00000-0 0  9999
2 12473  66.0000 144.0000 0000000   0.0000 108.0000 13.81943798    13
CTC2_L_00483014-01
1 12474U 23014AR  26037.47796296  .00000000  00000+0  00000-0 0  9995
2 12474  66.0000 156.0000 0000000   0.0000 312.0000 13.81943798    14
CTC2_L_00483014-02
1 12475U 26030IW  26037.47796296  .00000000  00000+0  00000-0 0  9997
2 12475  66.0000 156.0000 0000000   0.0000 132.0000 13.81943798    15
CTC2_L_00483015-01
1 12476U 26041OS  26037.47796296  .00000000  00000+0  00000-0 0  9990
2 12476  66.0000 168.0000 0000000   0.0000 336.0000 13.81943798    15
CTC2_L_00483015-02
1 12477U 22370BU  26037.47796296  .00000000  00000+0  00000-0 0  9992
2 12477  66.0000 168.0000 0000000   0.0000 156.0000 13.81943798    16
CTC2_L_00483016-01
1 12478U 26298KR  26037.47796296  .00000000  00000+0  00000-0 0  9996
2 12478  66.0000 180.0000 0000000   0.0000   0.0000 13.81943798    19
CTC2_L_00483016-02
1 12479U 26389XF  26037.47796296  .00000000  00000+0  00000-0 0  9998
2 12479  66.0000 180.0000 0000000   0.0000 180.0000 13.81943798    19
CTC2_L_00483017-01
1 12480U 25974NE  26037.47796296  .00000000  00000+0  00000-0 0  9999
2 12480  66.0000 192.0000 0000000   0.0000  24.0000 13.81943798    11
CTC2_L_00483017-02
1 12481U 23221OC  26037.47796296  .00000000  00000+0  00000-0 0  9993
2 12481  66.0000 192.0000 0000000   0.0000 204.0000 13.81943798    12
CTC2_L_00483018-01
1 12482U 26898CS  26037.47796296  .00000000  00000+0  00000-0 0  9997
2 12482  66.0000 204.0000 0000000   0.0000  48.0000 13.81943798    13
CTC2_L_00483018-02
1 12483U 22471BQ  26037.47796296  .00000000  00000+0  00000-0 0  9991
2 12483  66.0000 204.0000 0000000   0.0000 228.0000 13.81943798    14
CTC2_L_00483019-01
1 12484U 26835QG  26037.47796296  .00000000  00000+0  00000-0 0  9990
2 12484  66.0000 216.0000 0000000   0.0000  72.0000 13.81943798    15
CTC2_L_00483019-02
1 12485U 25173BQ  26037.47796296  .00000000  00000+0  00000-0 0  9995
2 12485  66.0000 216.0000 0000000   0.0000 252.0000 13.81943798    16
CTC2_L_00483020-01
1 12486U 24275OC  26037.47796296  .00000000  00000+0  00000-0 0  9998
2 12486  66.0000 228.0000 0000000   0.0000  96.0000 13.81943798    16
CTC2_L_00483020-02
1 12487U 22364LK  26037.47796296  .00000000  00000+0  00000-0 0  9996
2 12487  66.0000 228.0000 0000000   0.0000 276.0000 13.81943798    17
CTC2_L_00483021-01
1 12488U 26579SW  26037.47796296  .00000000  00000+0  00000-0 0  9999
2 12488  66.0000 240.0000 0000000   0.0000 120.0000 13.81943798    10
CTC2_L_00483021-02
1 12489U 26134AU  26037.47796296  .00000000  00000+0  00000-0 0  9997
2 12489  66.0000 240.0000 0000000   0.0000 300.0000 13.81943798    11
CTC2_L_00483022-01
1 12490U 22745UR  26037.47796296  .00000000  00000+0  00000-0 0  9993
2 12490  66.0000 252.0000 0000000   0.0000 144.0000 13.81943798    12
CTC2_L_00483022-02
1 12491U 24232VR  26037.47796296  .00000000  00000+0  00000-0 0  9997
2 12491  66.0000 252.0000 0000000   0.0000 324.0000 13.81943798    13
CTC2_L_00483023-01
1 12492U 26201GX  26037.47796296  .00000000  00000+0  00000-0 0  9996
2 12492  66.0000 264.0000 0000000   0.0000 168.0000 13.81943798    13
CTC2_L_00483023-02
1 12493U 23223XV  26037.47796296  .00000000  00000+0  00000-0 0  9998
2 12493  66.0000 264.0000 0000000   0.0000 348.0000 13.81943798    14
CTC2_L_00483024-01
1 12494U 25049IR  26037.47796296  .00000000  00000+0  00000-0 0  9997
2 12494  66.0000 276.0000 0000000   0.0000 192.0000 13.81943798    15
CTC2_L_00483024-02
1 12495U 22508IP  26037.47796296  .00000000  00000+0  00000-0 0  9995
2 12495  66.0000 276.0000 0000000   0.0000  12.0000 13.81943798    17
CTC2_L_00483025-01
1 12496U 25105VN  26037.47796296  .00000000  00000+0  00000-0 0  9992
2 12496  66.0000 288.0000 0000000   0.0000 216.0000 13.81943798    17
CTC2_L_00483025-02
1 12497U 24069ZY  26037.47796296  .00000000  00000+0  00000-0 0  9991
2 12497  66.0000 288.0000 0000000   0.0000  36.0000 13.81943798    18
CTC2_L_00483026-01
1 12498U 25696TS  26037.47796296  .00000000  00000+0  00000-0 0  9999
2 12498  66.0000 300.0000 0000000   0.0000 240.0000 13.81943798    11
CTC2_L_00483026-02
1 12499U 24925IZ  26037.47796296  .00000000  00000+0  00000-0 0  9994
2 12499  66.0000 300.0000 0000000   0.0000  60.0000 13.81943798    12
CTC2_L_00483027-01
1 12500U 25622CD  26037.47796296  .00000000  00000+0  00000-0 0  9992
2 12500  66.0000 312.0000 0000000   0.0000 264.0000 13.81943798    14
CTC2_L_00483027-02
1 12501U 24130YU  26037.47796296  .00000000  00000+0  00000-0 0  9996
2 12501  66.0000 312.0000 0000000   0.0000  84.0000 13.81943798    15
CTC2_L_00483028-01
1 12502U 23463WF  26037.47796296  .00000000  00000+0  00000-0 0  9995
2 12502  66.0000 324.0000 0000000   0.0000 288.0000 13.81943798    15
CTC2_L_00483028-02
1 12503U 24783RD  26037.47796296  .00000000  00000+0  00000-0 0  9992
2 12503  66.0000 324.0000 0000000   0.0000 108.0000 13.81943798    17
CTC2_L_00483029-01
1 12504U 24209JZ  26037.47796296  .00000000  00000+0  00000-0 0  9996
2 12504  66.0000 336.0000 0000000   0.0000 312.0000 13.81943798    18
CTC2_L_00483029-02
1 12505U 22079VX  26037.47796296  .00000000  00000+0  00000-0 0  9990
2 12505  66.0000 336.0000 0000000   0.0000 132.0000 13.81943798    19
CTC2_L_00483030-01
1 12506U 22143NZ  26037.47796296  .00000000  00000+0  00000-0 0  9993
2 12506  66.0000 348.0000 0000000   0.0000 336.0000 13.81943798    19
CTC2_L_00483030-02
1 12507U 26658TC  26037.47796296  .00000000  00000+0  00000-0 0  9999
2 12507  66.0000 348.0000 0000000   0.0000 156.0000 13.81943798    10
